{
  "norad_id": 68295,
  "name": "STARLINK-37147",
  "history": [
    {
      "epoch": "2026-03-28T20:00:01.999872Z",
      "apogee_km": 270.65136807001545,
      "perigee_km": 268.93394192294454,
      "latitude_deg": -39.22059746723222,
      "longitude_deg": -101.25917467974658,
      "height_km": 285.5549301050274,
      "semi_major_axis_km": 6647.92965499648,
      "eccentricity": 0.00012917,
      "inclination_deg": 97.2812,
      "raan_deg": 210.9491,
      "arg_perigee_deg": 80.3375,
      "mean_anomaly_deg": 138.9666,
      "mean_motion_rev_day": 16.01670361
    },
    {
      "epoch": "2026-03-29T04:00:01.999584Z",
      "apogee_km": 272.8037217854835,
      "perigee_km": 270.990922429276,
      "latitude_deg": -20.50029862388541,
      "longitude_deg": -32.54863485361223,
      "height_km": 279.7362270873743,
      "semi_major_axis_km": 6650.034322107379,
      "eccentricity": 0.0001363,
      "inclination_deg": 97.2808,
      "raan_deg": 211.3139,
      "arg_perigee_deg": 58.5642,
      "mean_anomaly_deg": 281.0225,
      "mean_motion_rev_day": 16.00910053
    },
    {
      "epoch": "2026-03-30T04:00:01.999584Z",
      "apogee_km": 279.04007463354264,
      "perigee_km": 277.33472432239705,
      "latitude_deg": -25.176541344666727,
      "longitude_deg": -31.7458131619429,
      "height_km": 287.7069313335917,
      "semi_major_axis_km": 6656.32439947797,
      "eccentricity": 0.0001281,
      "inclination_deg": 97.2804,
      "raan_deg": 212.4015,
      "arg_perigee_deg": 58.133,
      "mean_anomaly_deg": 276.7495,
      "mean_motion_rev_day": 15.98641353
    },
    {
      "epoch": "2026-03-30T06:00:02.000160Z",
      "apogee_km": 279.70632046023366,
      "perigee_km": 277.7657088390024,
      "latitude_deg": 81.67886022014244,
      "longitude_deg": 175.1259845682121,
      "height_km": 291.4972011792849,
      "semi_major_axis_km": 6656.873014649617,
      "eccentricity": 0.00014576,
      "inclination_deg": 97.2803,
      "raan_deg": 212.492,
      "arg_perigee_deg": 53.4669,
      "mean_anomaly_deg": 40.6535,
      "mean_motion_rev_day": 15.98443733
    },
    {
      "epoch": "2026-03-30T14:00:03.000384Z",
      "apogee_km": 281.7195225442929,
      "perigee_km": 279.8503631549356,
      "latitude_deg": -30.58803637410101,
      "longitude_deg": -9.439841962003195,
      "height_km": 293.2018239279544,
      "semi_major_axis_km": 6658.921942849614,
      "eccentricity": 0.00014035,
      "inclination_deg": 97.2802,
      "raan_deg": 212.852,
      "arg_perigee_deg": 65.0445,
      "mean_anomaly_deg": 145.5318,
      "mean_motion_rev_day": 15.97706036
    },
    {
      "epoch": "2026-03-30T22:00:00.999936Z",
      "apogee_km": 283.58393551465997,
      "perigee_km": 282.0142193186566,
      "latitude_deg": -34.08021245605776,
      "longitude_deg": 59.83800283339355,
      "height_km": 296.01750119078895,
      "semi_major_axis_km": 6660.936077416658,
      "eccentricity": 0.00011783,
      "inclination_deg": 97.2803,
      "raan_deg": 213.2135,
      "arg_perigee_deg": 70.3023,
      "mean_anomaly_deg": 255.5991,
      "mean_motion_rev_day": 15.96981419
    },
    {
      "epoch": "2026-03-31T20:00:01.999008Z",
      "apogee_km": 289.9878368005411,
      "perigee_km": 288.06636010736656,
      "latitude_deg": -8.878884566494223,
      "longitude_deg": -96.14652181596306,
      "height_km": 294.01745589482164,
      "semi_major_axis_km": 6667.164098453954,
      "eccentricity": 0.0001441,
      "inclination_deg": 97.28,
      "raan_deg": 214.2039,
      "arg_perigee_deg": 85.5145,
      "mean_anomaly_deg": 103.2366,
      "mean_motion_rev_day": 15.94744251
    },
    {
      "epoch": "2026-04-01T20:00:01.999008Z",
      "apogee_km": 297.45739563899497,
      "perigee_km": 295.45501767699716,
      "latitude_deg": 18.755031640521537,
      "longitude_deg": -92.44596528980126,
      "height_km": 299.04340044185966,
      "semi_major_axis_km": 6674.593206657995,
      "eccentricity": 0.00015,
      "inclination_deg": 97.2801,
      "raan_deg": 215.281,
      "arg_perigee_deg": 75.1011,
      "mean_anomaly_deg": 85.9646,
      "mean_motion_rev_day": 15.92082464
    }
  ]
}